ONEWEB-0300             
1 49089U 21075Q   25048.61677367  .00000239  00000+0  62857-3 0  9991
2 49089  87.8812  87.1260 0001880 107.1033 253.0301 13.12442023171647
ONEWEB-0301             
1 49090U 21075R   25048.60055085 -.00000221  00000+0 -64925-3 0  9990
2 49090  87.8813  87.1342 0001923 105.9330 254.2010 13.12443338171005
ONEWEB-0302             
1 49091U 21075S   25048.58757170 -.00000396  00000+0 -11373-2 0  9993
2 49091  87.8816  87.1367 0002107  85.1729 274.9640 13.12441470170981
ONEWEB-0304             
1 49092U 21075T   25048.61964735  .00000004  00000+0 -22384-4 0  9996
2 49092  87.9046 102.4074 0001792  94.4167 265.7169 13.17651171169766
ONEWEB-0305             
1 49093U 21075U   25048.61288015  .00000011  00000+0 -38308-5 0  9999
2 49093  87.9044 102.3894 0001493  91.7949 268.3353 13.17651098169795
ONEWEB-0308             
1 49094U 21075V   25048.80978823 -.00000179  00000+0 -53380-3 0  9995
2 49094  87.8815  87.0889 0001909  97.7127 262.4218 13.12439866172049
ONEWEB-0309             
1 49095U 21075W   25048.61627476 -.00000017  00000+0 -76053-4 0  9994
2 49095  87.9047 102.4011 0002266  88.1407 271.9984 13.17649680169761
ONEWEB-0310             
1 49096U 21075X   25048.59568102 -.00000379  00000+0 -10899-2 0  9997
2 49096  87.8824  87.1622 0002014  92.6431 267.4928 13.12442625171620
